ONEWEB-0520             
1 54138U 22138AB  24298.58502110 -.00000580  00000+0 -14812-2 0  9996
2 54138  87.9153  64.3956 0002250  96.0146 264.1243 13.19729052 97607
ONEWEB-0521             
1 54139U 22138AC  24298.39076783  .00000172  00000+0  39824-3 0  9994
2 54139  87.9153  64.4252 0001467 104.2815 255.8480 13.19725738 97520
ONEWEB-0522             
1 54140U 22138AD  24298.37021653  .00000181  00000+0  42088-3 0  9996
2 54140  87.9152  64.4308 0001760  95.5267 264.6067 13.19724322 97563
ONEWEB-0523             
1 54141U 22138AE  24298.50638066  .00000034  00000+0  52983-4 0  9997
2 54141  87.9293  33.9286 0000816  90.1927 269.9300 13.20766748100014
ONEWEB-0524             
1 54142U 22138AF  24298.57111086  .00000035  00000+0  53141-4 0  9991
2 54142  87.9294  33.9187 0001740  63.7200 296.4111 13.20773924100023
ONEWEB-0525             
1 54143U 22138AG  24298.38915924  .00000035  00000+0  54674-4 0  9996
2 54143  87.9159  64.4394 0001959  98.9966 261.1389 13.19723078 97589
ONEWEB-0526             
1 54144U 22138AH  24298.42234683  .00001318  00000+0  32593-2 0  9997
2 54144  87.9155  64.4263 0001808  94.2090 265.9249 13.19716781 97569
ONEWEB-0529             
1 54145U 22138AJ  24298.42548385  .00000074  00000+0  15270-3 0  9997
2 54145  87.9163  64.4496 0002015  97.8332 262.3029 13.19728699 97586
